[{"OBJECT_NAME":"STARLINK-2041","OBJECT_ID":"2021-012AP","EPOCH":"2026-03-09T22:00:01.999584","MEAN_MOTION":15.43872381,"ECCENTRICITY":0.00014725,"INCLINATION":53.1608,"RA_OF_ASC_NODE":63.4955,"ARG_OF_PERICENTER":92.1005,"MEAN_ANOMALY":286.7548,"EPHEMERIS_TYPE":0,"CLASSIFICATION_TYPE":"U","NORAD_CAT_ID":47657,"ELEMENT_SET_NO":999,"REV_AT_EPOCH":580,"BSTAR":0.0025069191,"MEAN_MOTION_DOT":0.00116913,"MEAN_MOTION_DDOT":0},{"OBJECT_NAME":"FLOCK 4BE-12","OBJECT_ID":"2024-149CW","EPOCH":"2026-03-09T19:04:52.008960","MEAN_MOTION":15.46768533,"ECCENTRICITY":0.00062704,"INCLINATION":97.3748,"RA_OF_ASC_NODE":152.7697,"ARG_OF_PERICENTER":265.3801,"MEAN_ANOMALY":94.6732,"EPHEMERIS_TYPE":0,"CLASSIFICATION_TYPE":"U","NORAD_CAT_ID":60560,"ELEMENT_SET_NO":999,"REV_AT_EPOCH":8708,"BSTAR":0.0023197873,"MEAN_MOTION_DOT":0.00117755,"MEAN_MOTION_DDOT":0}]
